[{"OBJECT_NAME":"LEMUR-2-PETERG","OBJECT_ID":"2017-042S","EPOCH":"2026-03-09T11:34:35.656032","MEAN_MOTION":15.29611459,"ECCENTRICITY":0.00037,"INCLINATION":97.398,"RA_OF_ASC_NODE":253.6596,"ARG_OF_PERICENTER":341.6938,"MEAN_ANOMALY":18.4169,"EPHEMERIS_TYPE":0,"CLASSIFICATION_TYPE":"U","NORAD_CAT_ID":42841,"ELEMENT_SET_NO":999,"REV_AT_EPOCH":47317,"BSTAR":0.00081076471,"MEAN_MOTION_DOT":0.0002324,"MEAN_MOTION_DDOT":0},{"OBJECT_NAME":"STARLINK-33851","OBJECT_ID":"2025-085V","EPOCH":"2026-03-09T05:38:43.323360","MEAN_MOTION":15.2757957,"ECCENTRICITY":0.00018338,"INCLINATION":43.0038,"RA_OF_ASC_NODE":33.1993,"ARG_OF_PERICENTER":257.4057,"MEAN_ANOMALY":102.659,"EPHEMERIS_TYPE":0,"CLASSIFICATION_TYPE":"U","NORAD_CAT_ID":63683,"ELEMENT_SET_NO":999,"REV_AT_EPOCH":4880,"BSTAR":0.001071424,"MEAN_MOTION_DOT":0.00029338,"MEAN_MOTION_DDOT":0}]
