LEMUR-2-PETERG          
1 42841U 17042S   26068.48235713  .00023240  00000+0  81076-3 0  9993
2 42841  97.3980 253.6596 0003700 341.6938  18.4169 15.29611459473171
STARLINK-33851          
1 63683U 25085V   26068.23522365  .00029338  00000+0  10714-2 0  9995
2 63683  43.0038  33.1993 0001833 257.4057 102.6590 15.27579570 48800
